FENGYUN 3G              
1 56232U 23055A   26159.16096668  .00027993  00000+0  42328-3 0  9999
2 56232  49.9935  32.5331 0005551 163.1112 197.0042 15.54414771178601
METEOR-M2 3             
1 57166U 23091A   26159.17515704 -.00000008  00000+0  15320-4 0  9996
2 57166  98.6085 214.3375 0003833 179.4696 180.6488 14.24046065153238
TIANMU-1 07             
1 57399U 23101A   26159.20407531  .00007149  00000+0  25093-3 0  9997
2 57399  97.2596 210.0794 0003569 140.2937 219.8565 15.29705553160279
TIANMU-1 08             
1 57400U 23101B   26159.17074256  .00007028  00000+0  24666-3 0  9991
2 57400  97.2585 209.8187 0005122 137.1691 222.9950 15.29709866160264
TIANMU-1 09             
1 57401U 23101C   26159.15433013  .00007204  00000+0  25259-3 0  9995
2 57401  97.2544 209.2230 0003941 147.5695 212.5789 15.29737548160262
TIANMU-1 10             
1 57402U 23101D   26159.18721318  .00005867  00000+0  20636-3 0  9994
2 57402  97.2623 210.2965 0005532 150.1852 209.9705 15.29706466160264
FENGYUN 3F              
1 57490U 23111A   26159.16605281  .00000059  00000+0  47986-4 0  9996
2 57490  98.6836 229.3426 0001575  99.3678 260.7677 14.19937661147582
ARKTIKA-M 2             
1 58584U 23198A   26154.30372208  .00000150  00000+0  00000+0 0  9990
2 58584  63.2209 155.9142 6898549 267.4684  18.7857  2.00591941 18047
TIANMU-1 11             
1 58645U 23205A   26159.14112909  .00006535  00000+0  24974-3 0  9997
2 58645  97.3453 180.8405 0009981  46.3387 313.8677 15.26903317136142
TIANMU-1 12             
1 58646U 23205B   26159.11127284  .00006526  00000+0  24981-3 0  9995
2 58646  97.3441 180.5687 0007820  33.9552 326.2186 15.26865212136127
TIANMU-1 13             
1 58647U 23205C   26159.14258891  .00006676  00000+0  25666-3 0  9995
2 58647  97.3469 180.8708 0007013  15.0172 345.1274 15.26719790136125
TIANMU-1 14             
1 58648U 23205D   26159.12805934  .00006715  00000+0  25774-3 0  9994
2 58648  97.3405 180.0454 0007990  18.3634 341.7891 15.26764653136124
